HTV-X1                  
1 66174U 25241A   26073.34423281  .00013297  00000+0  57208-3 0  9999
2 66174  51.6357  50.7100 0005738 187.3558 172.7336 15.22910164 21661
SZ-21 MODULE            
1 66515U 25246C   26076.58482274  .00029162  00000+0  24561-3 0  9993
2 66515  41.4741 154.7368 0000592 302.6268  57.4517 15.69175030 19313
SHENZHOU-22             
1 66645U 25272A   26077.16120950  .00021858  00000+0  25476-3 0  9991
2 66645  41.4669 156.5982 0005998 324.6627  35.3814 15.61122200278861
SOYUZ-MS 28             
1 66664U 25275A   26077.16145852  .00007208  00000+0  14196-3 0  9993
2 66664  51.6338  30.4771 0006242 203.4545 156.6159 15.48351952554522
DUPLEX                  
1 66906U 98067XS  26076.93265565  .00024045  00000+0  33549-3 0  9990
2 66906  51.6300  28.2024 0002916 147.7236 212.3935 15.56752750 16410
ISS OBJECT XT           
1 66907U 98067XT  26077.10831299  .00144711  00000+0  10639-2 0  9991
2 66907  51.6256  22.6028 0005010 136.0050 224.1347 15.72107218 16505
ISS OBJECT XU           
1 66908U 98067XU  26077.10578143  .00150765  00000+0  11000-2 0  9997
2 66908  51.6254  22.5822 0005228 136.7142 223.4268 15.72262943 16506
SILVERSAT               
1 66909U 98067XV  26077.08947402  .00188918  00000+0  11693-2 0  9992
2 66909  51.6243  21.7188 0005600 137.5324 222.6110 15.75954146 16510
ISS OBJECT XW           
1 66910U 98067XW  26077.04385713  .00126852  00000+0  97350-3 0  9995
2 66910  51.6248  22.9144 0005598 137.0995 223.0441 15.71148756 16494
ISS OBJECT XX           
1 66911U 98067XX  26077.06683133  .00252305  00000+0  12796-2 0  9998
2 66911  51.6212  20.7915 0007243 141.9689 218.1825 15.80205228 16513
ISS OBJECT XY           
1 66912U 98067XY  26077.01299966  .00078591  00000+0  77195-3 0  9999
2 66912  51.6278  24.9814 0003628 139.1687 220.9580 15.65332059 16458
KNACKSAT-2              
1 67683U 98067XZ  26077.29040373  .00031110  00000+0  50261-3 0  9992
2 67683  51.6316  29.0899 0009677 216.1335 143.9002 15.52537179  6124
